{
  "type": "FeatureCollection",
  "features": [
    {
      "type": "Feature",
      "properties": {
        "norad_id": 66890,
        "name": "STARLINK-35885",
        "group": "last-30-days",
        "lat": 39.87533715201915,
        "lon": 175.52793918433824,
        "alt_km": 341.311216018501,
        "timestamp": "2025-12-20T14:38:00.690489+00:00",
        "meta_object_name": "STARLINK-35885",
        "meta_object_id": "2025-283N",
        "meta_epoch": "2025-12-20T06:00:02.999808",
        "meta_mean_motion": 15.742373,
        "meta_eccentricity": 0.00011073,
        "meta_inclination": 53.1575,
        "meta_ra_of_asc_node": 36.0973,
        "meta_arg_of_pericenter": 74.9403,
        "meta_mean_anomaly": 172.112,
        "meta_ephemeris_type": 0,
        "meta_classification_type": "U",
        "meta_norad_cat_id": 66890,
        "meta_element_set_no": 999,
        "meta_rev_at_epoch": 363,
        "meta_bstar": -0.00067238351,
        "meta_mean_motion_dot": -0.00098167,
        "meta_mean_motion_ddot": 0,
        "tle_line1": "1 66890U 25283N   25354.25003472 -.00098167  00000+0 -67238-3 0  9992",
        "tle_line2": "2 66890  53.1575  36.0973 0001107  74.9403 172.1120 15.74237300  3639"
      },
      "geometry": {
        "type": "Point",
        "coordinates": [
          175.52793918433824,
          39.87533715201915
        ]
      }
    },
    {
      "type": "Feature",
      "properties": {
        "norad_id": 66891,
        "name": "STARLINK-35855",
        "group": "last-30-days",
        "lat": 38.671535399714976,
        "lon": 177.43065464773463,
        "alt_km": 341.15751330268995,
        "timestamp": "2025-12-20T14:38:00.690499+00:00",
        "meta_object_name": "STARLINK-35855",
        "meta_object_id": "2025-283P",
        "meta_epoch": "2025-12-20T06:00:02.999808",
        "meta_mean_motion": 15.74239333,
        "meta_eccentricity": 0.00012909,
        "meta_inclination": 53.1574,
        "meta_ra_of_asc_node": 36.093,
        "meta_arg_of_pericenter": 93.8368,
        "meta_mean_anomaly": 155.0969,
        "meta_ephemeris_type": 0,
        "meta_classification_type": "U",
        "meta_norad_cat_id": 66891,
        "meta_element_set_no": 999,
        "meta_rev_at_epoch": 363,
        "meta_bstar": -0.00038220402,
        "meta_mean_motion_dot": -0.00056354,
        "meta_mean_motion_ddot": 0,
        "tle_line1": "1 66891U 25283P   25354.25003472 -.00056354  00000+0 -38220-3 0  9994",
        "tle_line2": "2 66891  53.1574  36.0930 0001290  93.8368 155.0969 15.74239333  3634"
      },
      "geometry": {
        "type": "Point",
        "coordinates": [
          177.43065464773463,
          38.671535399714976
        ]
      }
    },
    {
      "type": "Feature",
      "properties": {
        "norad_id": 66892,
        "name": "STARLINK-35883",
        "group": "last-30-days",
        "lat": 37.41991285421367,
        "lon": 179.29561661997258,
        "alt_km": 341.7418151282991,
        "timestamp": "2025-12-20T14:38:00.690511+00:00",
        "meta_object_name": "STARLINK-35883",
        "meta_object_id": "2025-283Q",
        "meta_epoch": "2025-12-20T06:00:02.999808",
        "meta_mean_motion": 15.74222605,
        "meta_eccentricity": 0.0001124,
        "meta_inclination": 53.1575,
        "meta_ra_of_asc_node": 36.0884,
        "meta_arg_of_pericenter": 73.7957,
        "meta_mean_anomaly": 177.097,
        "meta_ephemeris_type": 0,
        "meta_classification_type": "U",
        "meta_norad_cat_id": 66892,
        "meta_element_set_no": 999,
        "meta_rev_at_epoch": 357,
        "meta_bstar": -0.00052958511,
        "meta_mean_motion_dot": -0.0007759,
        "meta_mean_motion_ddot": 0,
        "tle_line1": "1 66892U 25283Q   25354.25003472 -.00077590  00000+0 -52959-3 0  9995",
        "tle_line2": "2 66892  53.1575  36.0884 0001124  73.7957 177.0970 15.74222605  3574"
      },
      "geometry": {
        "type": "Point",
        "coordinates": [
          179.29561661997258,
          37.41991285421367
        ]
      }
    },
    {
      "type": "Feature",
      "properties": {
        "norad_id": 66893,
        "name": "STARLINK-36033",
        "group": "last-30-days",
        "lat": 36.14851799452956,
        "lon": -178.9127361009486,
        "alt_km": 342.0524816800398,
        "timestamp": "2025-12-20T14:38:00.690521+00:00",
        "meta_object_name": "STARLINK-36033",
        "meta_object_id": "2025-283R",
        "meta_epoch": "2025-12-20T06:00:02.999808",
        "meta_mean_motion": 15.74230337,
        "meta_eccentricity": 8.731e-05,
        "meta_inclination": 53.1575,
        "meta_ra_of_asc_node": 36.0848,
        "meta_arg_of_pericenter": 74.6463,
        "meta_mean_anomaly": 178.1622,
        "meta_ephemeris_type": 0,
        "meta_classification_type": "U",
        "meta_norad_cat_id": 66893,
        "meta_element_set_no": 999,
        "meta_rev_at_epoch": 363,
        "meta_bstar": -0.00062908798,
        "meta_mean_motion_dot": -0.00091924,
        "meta_mean_motion_ddot": 0,
        "tle_line1": "1 66893U 25283R   25354.25003472 -.00091924  00000+0 -62909-3 0  9999",
        "tle_line2": "2 66893  53.1575  36.0848 0000873  74.6463 178.1622 15.74230337  3631"
      },
      "geometry": {
        "type": "Point",
        "coordinates": [
          -178.9127361009486,
          36.14851799452956
        ]
      }
    },
    {
      "type": "Feature",
      "properties": {
        "norad_id": 66894,
        "name": "STARLINK-35718",
        "group": "last-30-days",
        "lat": 34.83517372042868,
        "lon": -177.15805133733483,
        "alt_km": 342.1780103382889,
        "timestamp": "2025-12-20T14:38:00.690533+00:00",
        "meta_object_name": "STARLINK-35718",
        "meta_object_id": "2025-283S",
        "meta_epoch": "2025-12-20T06:00:02.999808",
        "meta_mean_motion": 15.7431408,
        "meta_eccentricity": 0.00011806,
        "meta_inclination": 53.1575,
        "meta_ra_of_asc_node": 36.0812,
        "meta_arg_of_pericenter": 92.8812,
        "meta_mean_anomaly": 161.8544,
        "meta_ephemeris_type": 0,
        "meta_classification_type": "U",
        "meta_norad_cat_id": 66894,
        "meta_element_set_no": 999,
        "meta_rev_at_epoch": 363,
        "meta_bstar": -0.0020339784,
        "meta_mean_motion_dot": -0.00290069,
        "meta_mean_motion_ddot": 0,
        "tle_line1": "1 66894U 25283S   25354.25003472 -.00290069  00000+0 -20340-2 0  9993",
        "tle_line2": "2 66894  53.1575  36.0812 0001180  92.8812 161.8544 15.74314080  3635"
      },
      "geometry": {
        "type": "Point",
        "coordinates": [
          -177.15805133733483,
          34.83517372042868
        ]
      }
    },
    {
      "type": "Feature",
      "properties": {
        "norad_id": 66895,
        "name": "STARLINK-35971",
        "group": "last-30-days",
        "lat": 32.18075465669227,
        "lon": -173.86633570990801,
        "alt_km": 342.4859346992007,
        "timestamp": "2025-12-20T14:38:00.690543+00:00",
        "meta_object_name": "STARLINK-35971",
        "meta_object_id": "2025-283T",
        "meta_epoch": "2025-12-20T06:00:02.999808",
        "meta_mean_motion": 15.74226587,
        "meta_eccentricity": 0.00012707,
        "meta_inclination": 53.1575,
        "meta_ra_of_asc_node": 36.072,
        "meta_arg_of_pericenter": 82.5466,
        "meta_mean_anomaly": 176.0112,
        "meta_ephemeris_type": 0,
        "meta_classification_type": "U",
        "meta_norad_cat_id": 66895,
        "meta_element_set_no": 999,
        "meta_rev_at_epoch": 363,
        "meta_bstar": -0.00047105244,
        "meta_mean_motion_dot": -0.00069165,
        "meta_mean_motion_ddot": 0,
        "tle_line1": "1 66895U 25283T   25354.25003472 -.00069165  00000+0 -47105-3 0  9994",
        "tle_line2": "2 66895  53.1575  36.0720 0001270  82.5466 176.0112 15.74226587  3638"
      },
      "geometry": {
        "type": "Point",
        "coordinates": [
          -173.86633570990801,
          32.18075465669227
        ]
      }
    },
    {
      "type": "Feature",
      "properties": {
        "norad_id": 66896,
        "name": "STARLINK-35791",
        "group": "last-30-days",
        "lat": 33.523573914415124,
        "lon": -175.4932773997179,
        "alt_km": 342.2431319350926,
        "timestamp": "2025-12-20T14:38:00.690555+00:00",
        "meta_object_name": "STARLINK-35791",
        "meta_object_id": "2025-283U",
        "meta_epoch": "2025-12-20T06:00:02.999808",
        "meta_mean_motion": 15.74229814,
        "meta_eccentricity": 0.00010985,
        "meta_inclination": 53.1574,
        "meta_ra_of_asc_node": 36.0761,
        "meta_arg_of_pericenter": 94.2858,
        "meta_mean_anomaly": 162.3654,
        "meta_ephemeris_type": 0,
        "meta_classification_type": "U",
        "meta_norad_cat_id": 66896,
        "meta_element_set_no": 999,
        "meta_rev_at_epoch": 363,
        "meta_bstar": -0.00061897488,
        "meta_mean_motion_dot": -0.00090472,
        "meta_mean_motion_ddot": 0,
        "tle_line1": "1 66896U 25283U   25354.25003472 -.00090472  00000+0 -61897-3 0  9994",
        "tle_line2": "2 66896  53.1574  36.0761 0001098  94.2858 162.3654 15.74229814  3631"
      },
      "geometry": {
        "type": "Point",
        "coordinates": [
          -175.4932773997179,
          33.523573914415124
        ]
      }
    }
  ]
}